TURKSAT 3A              
1 33056U 08030B   18191.24354920  .00000146  00000-0  00000+0 0  9997
2 33056   0.0403  79.0703 0005197  26.1184 312.5825  1.00269955 37010
INTELSAT 25 (IS-25)     
1 33153U 08034A   18191.28705289 -.00000225  00000-0  00000+0 0  9990
2 33153   0.0169 289.1475 0000655 244.4636 186.3895  1.00271690 36571
BADR-6                  
1 33154U 08034B   18190.87876319  .00000145  00000-0  00000-0 0  9999
2 33154   0.0565  42.9424 0004692  55.6866 171.4642  1.00270163 36684
ECHOSTAR 11             
1 33207U 08035A   18190.50731866 -.00000055  00000-0  00000+0 0  9996
2 33207   0.0196 301.7949 0002310 166.5415 251.6899  1.00271849 36584
SUPERBIRD-C2            
1 33274U 08038A   18191.45396394 -.00000253  00000-0  00000+0 0  9991
2 33274   0.0210 295.9324 0001385 181.9225 117.8083  1.00269032 36317
AMC-21                  
1 33275U 08038B   18191.06405213  .00000036  00000-0  00000+0 0  9998
2 33275   0.0125  12.8205 0002093 102.8579  70.4259  1.00270624 36394
INMARSAT 4-F3           
1 33278U 08039A   18191.43434946 -.00000142  00000-0  00000+0 0  9997
2 33278   3.0221   5.4098 0002851 108.1220 233.1345  1.00271411 36196
NIMIQ 4                 
1 33373U 08044A   18191.53983059 -.00000222  00000-0  00000+0 0  9993
2 33373   0.0240  72.5522 0002382  21.1463 307.0363  1.00272436 35771
GALAXY 19 (G-19)        
1 33376U 08045A   18190.47132326 -.00000138  00000-0  00000+0 0  9998
2 33376   0.0204  35.2557 0002939  83.8237 240.9501  1.00269860 35765
VENESAT-1               
1 33414U 08055A   18190.85808830 -.00000237  00000-0  00000-0 0  9995
2 33414   0.0552 229.5193 0002002 271.0482  18.0853  1.00272505 35610
ASTRA 1M                
1 33436U 08057A   18190.80674392  .00000120  00000-0  00000-0 0  9990
2 33436   0.0214  53.7443 0004993  71.8564 111.7001  1.00269464 16662
CIEL-2                  
1 33453U 08063A   18191.54559829  .00000056  00000-0  00000+0 0  9992
2 33453   0.0369 281.2229 0002783 200.8640 233.8887  1.00272287 35088
EUTELSAT HOT BIRD 13C   
1 33459U 08065A   18191.16396184  .00000086  00000-0  00000+0 0  9994
2 33459   0.0563  56.2637 0005762  48.7157 255.0847  1.00269679 35189
EUTELSAT 48D            
1 33460U 08065B   18190.89414816  .00000124  00000-0  00000-0 0  9992
2 33460   0.0584  46.9798 0001875  79.4712 171.2392  1.00271114 34941
FENGYUN 2E              
1 33463U 08066A   18190.89080172 -.00000198  00000-0  00000-0 0  9992
2 33463   2.9229  68.8785 0003623 229.8524  35.9684  1.00263175 35012
EXPRESS-AM44            
1 33595U 09007A   18191.15861579 -.00000089  00000-0  00000+0 0  9990
2 33595   0.0412 211.3350 0000924 295.9980 186.8029  1.00272161 34489
NSS-9                   
1 33749U 09008A   18191.50743793  .00000070  00000-0  00000+0 0  9997
2 33749   0.0357 315.2468 0001843 159.3382 179.5324  1.00272562 34495
EUTELSAT 33E            
1 33750U 09008B   18191.45448050  .00000155  00000-0  00000+0 0  9995
2 33750   0.0319 335.6489 0004271 177.4262 331.9875  1.00277004 34536
TELSTAR 11N             
1 34111U 09009A   18190.86611399 -.00000250  00000-0  00000-0 0  9998
2 34111   0.0253  34.9755 0002118  61.4153 105.6154  1.00268926 17179
EUTELSAT 10A            
1 34710U 09016A   18191.13283459  .00000068  00000-0  00000+0 0  9999
2 34710   0.0631   2.1413 0005254 107.0590 236.6128  1.00274444 33893
SES-7 (PROTOSTAR 2)     
1 34941U 09027A   18191.13382789 -.00000345  00000-0  00000+0 0  9992
2 34941   0.0121  49.5943 0000249 201.9500 192.8860  1.00269007 33558
MEASAT-3A               
1 35362U 09032A   18189.94908829 -.00000240  00000-0  00000-0 0  9996
2 35362   0.0618 225.1510 0001568 298.9704 195.8853  1.00272996 33170
GOES 14                 
1 35491U 09033A   18191.48886817 -.00000094  00000-0  00000+0 0  9990
2 35491   0.3072 102.7313 0006813 118.1663 139.0499  1.00270216 33096
SIRIUS FM-5             
1 35493U 09034A   18190.85643081 -.00000199  00000-0  00000-0 0  9994
2 35493   0.0171   4.7317 0000236 359.1871 145.9818  1.00270327 17659
TERRESTAR-1             
1 35496U 09035A   18191.49106602 -.00000055  00000-0  00000+0 0  9992
2 35496   2.6315 353.8852 0002953 120.9134 239.3422  1.00272670 33094
ASIASAT 5               
1 35696U 09042A   18190.96438400 -.00000307  00000-0  00000-0 0  9998
2 35696   0.0109 298.6825 0001494 143.6886 293.1599  1.00270575 32601
JCSAT-RA (JCSAT-12)     
1 35755U 09044A   18190.84541266 -.00000345  00000-0  00000-0 0  9990
2 35755   0.0261 355.1053 0000999 149.3054 215.5967  1.00272498 32532
OPTUS D3                
1 35756U 09044B   18190.90467223 -.00000147  00000-0  00000-0 0  9998
2 35756   0.0315 345.5633 0002959 107.3665 316.5310  1.00272466 32494
PALAPA D                
1 35812U 09046A   18190.88694642 -.00000358  00000-0  00000-0 0  9991
2 35812   0.0193  72.8891 0002144  60.8786 226.2506  1.00270725 32603
NIMIQ 5                 
1 35873U 09050A   18191.43345664 -.00000258  00000-0  00000+0 0  9990
2 35873   0.0401 280.4059 0002165 201.6504 249.5881  1.00271904 32290
AMAZONAS 2              
1 35942U 09054A   18191.21612340 -.00000283  00000-0  00000+0 0  9993
2 35942   0.0329 169.9348 0005117 316.4988 178.4485  1.00270128 32106
COMSATBW-1              
1 35943U 09054B   18191.17335866  .00000024  00000-0  00000+0 0  9996
2 35943   0.0361  95.9078 0001941   7.0376 310.5258  1.00270140 32196
NSS-12                  
1 36032U 09058A   18190.04471307  .00000074  00000-0  00000+0 0  9991
2 36032   0.0124  12.5448 0002553  95.1953 252.2895  1.00270956 31854
THOR 6                  
1 36033U 09058B   18191.30421247 -.00000011  00000-0  00000+0 0  9992
2 36033   0.0107  43.0874 0001553  88.5178 265.2319  1.00270046 31903
INTELSAT 14 (IS-14)     
1 36097U 09064A   18191.32453477 -.00000275  00000-0  00000+0 0  9993
2 36097   0.0213  39.8501 0002357  76.8742 243.2999  1.00269121 31644
EUTELSAT 36B            
1 36101U 09065A   18191.16795003  .00000155  00000-0  00000+0 0  9992
2 36101   0.0657  27.1113 0004045  82.9056 274.3843  1.00273890 31745
INTELSAT 15 (IS-15)     
1 36106U 09067A   18191.46494880 -.00000186  00000-0  00000+0 0  9996
2 36106   0.0111 333.2297 0002022 139.1867  68.4442  1.00270632 31532
DIRECTV 12              
1 36131U 09075A   18191.45669708 -.00000104  00000-0  00000+0 0  9995
2 36131   0.0414 218.2721 0000338  35.0479  96.6079  1.00271483 31311
BEIDOU 3                
1 36287U 10001A   18191.49632603 -.00000285  00000-0  00000+0 0  9996
2 36287   1.4745   3.7743 0004304 155.2365  88.1137  1.00272215 31104
RADUGA-1M 2             
1 36358U 10002A   18191.46486156 -.00000185  00000-0  00000+0 0  9992
2 36358   0.0164 293.4478 0002455 193.5887  53.6467  1.00272054 30940
SDO                     
1 36395U 10005A   18191.41442973 -.00000070  00000-0  00000+0 0  9993
2 36395  29.2413 133.5342 0001708  35.2232 166.7742  1.00269720 30961
INTELSAT 16 (IS-16)     
1 36397U 10006A   18191.36092821 -.00000246  00000-0  00000+0 0  9998
2 36397   0.0180  28.4214 0001889  81.2084 232.3282  1.00271115 30664
GOES 15                 
1 36411U 10008A   18190.57757861  .00000091  00000-0  00000-0 0  9999
2 36411   0.2787 102.4701 0001341  98.9681 158.5568  1.00266504 30607
ECHOSTAR 14             
1 36499U 10010A   18191.49739708 -.00000001  00000-0  00000+0 0  9991
2 36499   0.0185 352.1733 0002803 115.5427 240.8070  1.00271080 30462
SES-1                   
1 36516U 10016A   18191.15465920 -.00000115  00000-0  00000+0 0  9998
2 36516   0.0371 301.7293 0001797 155.1369 145.8313  1.00272011 30061
ASTRA 3B                
1 36581U 10021A   18190.80653189  .00000137  00000-0  00000+0 0  9996
2 36581   0.0552 311.5821 0003115 159.2915 130.6609  1.00268826 29571
COMSATBW-2              
1 36582U 10021B   18191.19152637  .00000088  00000-0  00000+0 0  9997
2 36582   0.0220  45.2335 0002327  79.7031 245.2757  1.00274599 29924
BEIDOU 4                
1 36590U 10024A   18190.92356839 -.00000356  00000-0  00000+0 0  9998
2 36590   1.3617  19.3832 0006086 348.4421   3.0125  1.00275824 29703
BADR-5                  
1 36592U 10025A   18190.87876319  .00000145  00000-0  00000-0 0  9991
2 36592   0.0163  59.8707 0003748  83.2269 126.9939  1.00268912 24144
COMS 1                  
1 36744U 10032A   18190.93039943 -.00000344  00000-0  00000-0 0  9991
2 36744   0.0434 196.0645 0000717 308.0958 246.7931  1.00271488 22014
ARABSAT-5A              
1 36745U 10032B   18191.12874713  .00000153  00000-0  00000+0 0  9992
2 36745   0.0508  27.0673 0003242  84.6098 253.1457  1.00273353 29564
ECHOSTAR 15             
1 36792U 10034A   18190.94545288 -.00000281  00000-0  00000-0 0  9991
2 36792   0.0444 286.2414 0001365 187.5050  92.7714  1.00268581 29270
NILESAT 201             
1 36830U 10037A   18190.87222049 -.00000057  00000-0  00000-0 0  9997
2 36830   0.0641 200.9879 0005800 262.0885 131.6603  1.00270630 29293
RASCOM-QAF 1R           
1 36831U 10037B   18191.19179538  .00000018  00000-0  00000+0 0  9993
2 36831   0.0163  13.2588 0004590  93.6238 253.1677  1.00269262 29223
CHINASAT 6A (ZX 6A)     
1 37150U 10042A   18190.95882778 -.00000354  00000-0  00000-0 0  9999
2 37150   0.0341 154.9845 0001745  15.5234 227.5714  1.00271452 28830
QZS-1 (MICHIBIKI)       
1 37158U 10045A   18190.30460578 -.00000113  00000-0  00000-0 0  9992
2 37158  41.0914 153.7251 0758827 270.5813 108.9326  1.00256098 28675
XM-5                    
1 37185U 10053A   18191.43092681 -.00000206  00000-0  00000+0 0  9994
2 37185   0.0069 330.6614 0001702 172.5181 215.0411  1.00270060 28380
BSAT-3B                 
1 37207U 10056B   18190.92356840 -.00000350  00000-0  00000-0 0  9996
2 37207   0.0854 301.4667 0001286  51.5765  17.1115  1.00271604 23159
BEIDOU 6                
1 37210U 10057A   18191.24615689 -.00000113  00000-0  00000+0 0  9992
2 37210   0.9237  54.6925 0002092 213.8442 268.1486  1.00272770 28218
